STARLINK-1335           
1 45581U 20025BC  26068.31091840 -.00000616  00000+0 -90193-5 0  9991
2 45581  53.1576  76.8114 0001478  99.6562 260.4606 15.29356205325479
HAWK-11C                
1 62381U 24247E   26068.51221537  .00009223  00000+0  33290-3 0  9992
2 62381  45.0045 114.8762 0005900 329.7040  30.3502 15.28848020 67743
